{
"type": "FeatureCollection",
"name": "ProjectPoints",
"crs": { "type": "name", "properties": { "name": "urn:ogc:def:crs:OGC:1.3:CRS84" } },
"features": [
{ "type": "Feature", "properties": { "ClientName": "Alleyn's School ", "ProjectTitle": " Alleyn's Junior School Redevelopment", "Sector": "Education", "Postcode": "SE22 8SU", "Latitude": 51.454781, "Longitude": -0.082019144 }, "geometry": { "type": "Point", "coordinates": [ -0.082019144, 51.454781 ] } },
{ "type": "Feature", "properties": { "ClientName": "Michael Pringle", "ProjectTitle": "1 White Hart Lane, Barnes", "Sector": "Education", "Postcode": "SW13 0PX", "Latitude": 51.470527, "Longitude": -0.25532166 }, "geometry": { "type": "Point", "coordinates": [ -0.25532166, 51.470527 ] } },
{ "type": "Feature", "properties": { "ClientName": "The Salvation Army", "ProjectTitle": "101 Newington Causeway", "Sector": "Residential", "Postcode": "SE1 6BN ", "Latitude": 51.495751, "Longitude": -0.099662306 }, "geometry": { "type": "Point", "coordinates": [ -0.099662306, 51.495751 ] } },
{ "type": "Feature", "properties": { "ClientName": "Leos UK", "ProjectTitle": "103-111 High Street Croydon", "Sector": "Residential", "Postcode": "CR0 1QG", "Latitude": 51.370186, "Longitude": -0.099664864 }, "geometry": { "type": "Point", "coordinates": [ -0.099664864, 51.370186 ] } },
{ "type": "Feature", "properties": { "ClientName": "Morgan Capital", "ProjectTitle": "16-17 Hanover Street", "Sector": "Mixed Use", "Postcode": "W1S 1YL ", "Latitude": 51.513686, "Longitude": -0.14197968 }, "geometry": { "type": "Point", "coordinates": [ -0.14197968, 51.513686 ] } },
{ "type": "Feature", "properties": { "ClientName": "KMG Partnership", "ProjectTitle": "2 Creek Road, Barking", "Sector": "Industrial", "Postcode": "IG11 0TA", "Latitude": 51.524621, "Longitude": 0.099455338 }, "geometry": { "type": "Point", "coordinates": [ 0.099455338, 51.524621 ] } },
{ "type": "Feature", "properties": { "ClientName": "L&Q", "ProjectTitle": "Barking Riverside 207A&B", "Sector": "Residential", "Postcode": " IG11 0YP", "Latitude": 51.518573, "Longitude": 0.118802 }, "geometry": { "type": "Point", "coordinates": [ 0.118802, 51.518573 ] } },
{ "type": "Feature", "properties": { "ClientName": "Rusupo", "ProjectTitle": "22 Grosvenor Square", "Sector": "Office", "Postcode": "W1K 6LF", "Latitude": 51.511902, "Longitude": -0.15319241 }, "geometry": { "type": "Point", "coordinates": [ -0.15319241, 51.511902 ] } },
{ "type": "Feature", "properties": { "ClientName": "Bethnal Green Regeneration Limited ", "ProjectTitle": "223 Cambridge Heath Road", "Sector": "Office", "Postcode": "E2 0EL", "Latitude": 51.526461, "Longitude": -0.055826878 }, "geometry": { "type": "Point", "coordinates": [ -0.055826878, 51.526461 ] } },
{ "type": "Feature", "properties": { "ClientName": "British Land", "ProjectTitle": "2-3 Finsbury Avenue", "Sector": "Office", "Postcode": "N3 1AG", "Latitude": 51.607975, "Longitude": -0.19465846 }, "geometry": { "type": "Point", "coordinates": [ -0.19465846, 51.607975 ] } },
{ "type": "Feature", "properties": { "ClientName": "Porta Planning", "ProjectTitle": "329 Portland Road, Hove", "Sector": null, "Postcode": "BN3 5SU", "Latitude": 50.835496, "Longitude": -0.20150904 }, "geometry": { "type": "Point", "coordinates": [ -0.20150904, 50.835496 ] } },
{ "type": "Feature", "properties": { "ClientName": "IXO Group", "ProjectTitle": "43\/45 Cold Harbour Lane SE5 9NR ", "Sector": "Residential", "Postcode": "SE5 9NR", "Latitude": 51.470584, "Longitude": -0.093768114 }, "geometry": { "type": "Point", "coordinates": [ -0.093768114, 51.470584 ] } },
{ "type": "Feature", "properties": { "ClientName": "Black Mountain Partners", "ProjectTitle": "68 King William Street", "Sector": "Office", "Postcode": "EC4N 7HR", "Latitude": 51.511093, "Longitude": -0.086442733 }, "geometry": { "type": "Point", "coordinates": [ -0.086442733, 51.511093 ] } },
{ "type": "Feature", "properties": { "ClientName": "Local Authorities Mutual Investment Trust", "ProjectTitle": "7 Roundood Avenue", "Sector": "Office", "Postcode": "UB11 1AX", "Latitude": 51.509124, "Longitude": -0.44528949 }, "geometry": { "type": "Point", "coordinates": [ -0.44528949, 51.509124 ] } },
{ "type": "Feature", "properties": { "ClientName": "Greenoak", "ProjectTitle": "78 St James Street", "Sector": "Office", "Postcode": "SW1A 1JB", "Latitude": 51.505303, "Longitude": -0.13902092 }, "geometry": { "type": "Point", "coordinates": [ -0.13902092, 51.505303 ] } },
{ "type": "Feature", "properties": { "ClientName": "Metaform", "ProjectTitle": "79-89 Lots Road", "Sector": "Office", "Postcode": "SW10 ORN", "Latitude": 51.478608, "Longitude": -0.184658 }, "geometry": { "type": "Point", "coordinates": [ -0.184658, 51.478608 ] } },
{ "type": "Feature", "properties": { "ClientName": "DP9", "ProjectTitle": "8 Battersea Park Road", "Sector": "Residential", "Postcode": "SW8 4BG", "Latitude": 51.4776, "Longitude": -0.14662905 }, "geometry": { "type": "Point", "coordinates": [ -0.14662905, 51.4776 ] } },
{ "type": "Feature", "properties": { "ClientName": "Sketch Design", "ProjectTitle": "84 The Street ", "Sector": "Residential", "Postcode": "CM23 1DS", "Latitude": 51.921631, "Longitude": 0.1625776 }, "geometry": { "type": "Point", "coordinates": [ 0.1625776, 51.921631 ] } },
{ "type": "Feature", "properties": { "ClientName": "PPR Estates", "ProjectTitle": "840 Old Kent Road", "Sector": "Residential", "Postcode": "SE15 1NQ", "Latitude": 51.478362, "Longitude": -0.054315897 }, "geometry": { "type": "Point", "coordinates": [ -0.054315897, 51.478362 ] } },
{ "type": "Feature", "properties": { "ClientName": "Marlin", "ProjectTitle": "89-95 Westminster Bridge Road", "Sector": "Hotel", "Postcode": "SE1 7XB", "Latitude": 51.498555, "Longitude": -0.11069705 }, "geometry": { "type": "Point", "coordinates": [ -0.11069705, 51.498555 ] } },
{ "type": "Feature", "properties": { "ClientName": "GCPM", "ProjectTitle": "A40 Club 2", "Sector": "Hotel", "Postcode": "W3 0TA", "Latitude": 51.527324, "Longitude": -0.28277689 }, "geometry": { "type": "Point", "coordinates": [ -0.28277689, 51.527324 ] } },
{ "type": "Feature", "properties": { "ClientName": "Safestore", "ProjectTitle": "Acton", "Sector": "Industrial", "Postcode": "W3 7YG", "Latitude": 51.505364, "Longitude": -0.2607782 }, "geometry": { "type": "Point", "coordinates": [ -0.2607782, 51.505364 ] } },
{ "type": "Feature", "properties": { "ClientName": "Greenoak", "ProjectTitle": "Allen House", "Sector": "Residential", "Postcode": "W8 6BH", "Latitude": 51.499619, "Longitude": -0.1953992 }, "geometry": { "type": "Point", "coordinates": [ -0.1953992, 51.499619 ] } },
{ "type": "Feature", "properties": { "ClientName": "Alleyn's School ", "ProjectTitle": "Alleyns School", "Sector": "Education", "Postcode": "SE22 8SU", "Latitude": 51.454781, "Longitude": -0.082019144 }, "geometry": { "type": "Point", "coordinates": [ -0.082019144, 51.454781 ] } },
{ "type": "Feature", "properties": { "ClientName": "Telford Homes", "ProjectTitle": "Alperton Bus Garage", "Sector": "Residential", "Postcode": "HA0 4LL", "Latitude": 51.541485, "Longitude": -0.29812106 }, "geometry": { "type": "Point", "coordinates": [ -0.29812106, 51.541485 ] } },
{ "type": "Feature", "properties": { "ClientName": "Redrow", "ProjectTitle": "Alperton House", "Sector": "Residential", "Postcode": "HA0 1EH", "Latitude": 51.539775, "Longitude": -0.30174662 }, "geometry": { "type": "Point", "coordinates": [ -0.30174662, 51.539775 ] } },
{ "type": "Feature", "properties": { "ClientName": "Peabody", "ProjectTitle": "Alperton Masterplan", "Sector": "Residential", "Postcode": "HA0 1JH", "Latitude": 51.534707, "Longitude": -0.30510732 }, "geometry": { "type": "Point", "coordinates": [ -0.30510732, 51.534707 ] } },
{ "type": "Feature", "properties": { "ClientName": "Alsford", "ProjectTitle": "Alsford Rye", "Sector": "Industrial", "Postcode": "TN31 7HW ", "Latitude": 50.949105, "Longitude": 0.73524517 }, "geometry": { "type": "Point", "coordinates": [ 0.73524517, 50.949105 ] } },
{ "type": "Feature", "properties": { "ClientName": "Sphere 25", "ProjectTitle": "Ampthill Rubgy Club EiP", "Sector": "Leisure", "Postcode": "MK45 2HX", "Latitude": 52.03207, "Longitude": -0.49797726 }, "geometry": { "type": "Point", "coordinates": [ -0.49797726, 52.03207 ] } },
{ "type": "Feature", "properties": { "ClientName": "Adam Khan Architects", "ProjectTitle": "Aquatics Triangle", "Sector": "Residential", "Postcode": "E20 2ZQ", "Latitude": 51.54004, "Longitude": -0.010526 }, "geometry": { "type": "Point", "coordinates": [ -0.010526, 51.54004 ] } },
{ "type": "Feature", "properties": { "ClientName": "GCPM", "ProjectTitle": "Art'otel", "Sector": "Hotel", "Postcode": "EC2A 3DT", "Latitude": 51.526286, "Longitude": -0.083383902 }, "geometry": { "type": "Point", "coordinates": [ -0.083383902, 51.526286 ] } },
{ "type": "Feature", "properties": { "ClientName": "Morgan Sindall ", "ProjectTitle": "Ash Manor School", "Sector": "Education", "Postcode": "GU12 6QH", "Latitude": 51.239406, "Longitude": -0.72831769 }, "geometry": { "type": "Point", "coordinates": [ -0.72831769, 51.239406 ] } },
{ "type": "Feature", "properties": { "ClientName": "JLL", "ProjectTitle": "Atkins, Orpington", "Sector": "Industrial", "Postcode": "BR5 2NH", "Latitude": 51.397707, "Longitude": 0.10183293 }, "geometry": { "type": "Point", "coordinates": [ 0.10183293, 51.397707 ] } },
{ "type": "Feature", "properties": { "ClientName": "Native Land", "ProjectTitle": "Bankside Yards", "Sector": "Mixed Use", "Postcode": "SE1 9JH", "Latitude": 51.508188, "Longitude": -0.10188286 }, "geometry": { "type": "Point", "coordinates": [ -0.10188286, 51.508188 ] } },
{ "type": "Feature", "properties": { "ClientName": "Meadow Residential", "ProjectTitle": "Barnet House", "Sector": "Residential", "Postcode": "N20 0EJ", "Latitude": 51.629426, "Longitude": -0.17515362 }, "geometry": { "type": "Point", "coordinates": [ -0.17515362, 51.629426 ] } },
{ "type": "Feature", "properties": { "ClientName": "Panther Securities", "ProjectTitle": "Barry Parade", "Sector": "Residential", "Postcode": "SE22 0JA", "Latitude": 51.458523, "Longitude": -0.066186244 }, "geometry": { "type": "Point", "coordinates": [ -0.066186244, 51.458523 ] } },
{ "type": "Feature", "properties": { "ClientName": "Kenwood Construction Ltd", "ProjectTitle": "Baywood, Kingfield Road, Woking", "Sector": "Residential", "Postcode": "GU22 9EG", "Latitude": 51.304823, "Longitude": -0.55233784 }, "geometry": { "type": "Point", "coordinates": [ -0.55233784, 51.304823 ] } },
{ "type": "Feature", "properties": { "ClientName": "Safestore", "ProjectTitle": "Bedford", "Sector": "Industrial", "Postcode": "MK42 9QZ", "Latitude": 52.116054, "Longitude": -0.47805351 }, "geometry": { "type": "Point", "coordinates": [ -0.47805351, 52.116054 ] } },
{ "type": "Feature", "properties": { "ClientName": "Surrey County Council", "ProjectTitle": "Bell Farm School, Hersham", "Sector": "Education", "Postcode": "KT12 5NB", "Latitude": 51.372048, "Longitude": -0.40075802 }, "geometry": { "type": "Point", "coordinates": [ -0.40075802, 51.372048 ] } },
{ "type": "Feature", "properties": { "ClientName": "KMG Partnership", "ProjectTitle": "Bidfood Manchester", "Sector": "Industrial", "Postcode": "M6 6TZ", "Latitude": 53.502144, "Longitude": -2.2910017 }, "geometry": { "type": "Point", "coordinates": [ -2.2910017, 53.502144 ] } },
{ "type": "Feature", "properties": { "ClientName": "KMG Partnership", "ProjectTitle": "Bidfood Salisbury", "Sector": "Industrial", "Postcode": "SP5 3HY ", "Latitude": 50.994957, "Longitude": -1.7572419 }, "geometry": { "type": "Point", "coordinates": [ -1.7572419, 50.994957 ] } },
{ "type": "Feature", "properties": { "ClientName": "MIDAS Construction Ltd", "ProjectTitle": "Blue Coats School", "Sector": "Education", "Postcode": "WS1 2ND", "Latitude": 52.581123, "Longitude": -1.9757979 }, "geometry": { "type": "Point", "coordinates": [ -1.9757979, 52.581123 ] } },
{ "type": "Feature", "properties": { "ClientName": "Montagu Evans", "ProjectTitle": "Blue Star House, Brixton", "Sector": "Mixed Use", "Postcode": "SW9 9SP", "Latitude": 51.464706, "Longitude": -0.11510438 }, "geometry": { "type": "Point", "coordinates": [ -0.11510438, 51.464706 ] } },
{ "type": "Feature", "properties": { "ClientName": "HKR Architects", "ProjectTitle": "Boulonge Road", "Sector": "Residential", "Postcode": "CR0 2QT", "Latitude": 51.389703, "Longitude": -0.097620231 }, "geometry": { "type": "Point", "coordinates": [ -0.097620231, 51.389703 ] } },
{ "type": "Feature", "properties": { "ClientName": "Southern Housing Group", "ProjectTitle": "Bow River Village (Phase 3)", "Sector": "Residential", "Postcode": "E3 3DA", "Latitude": 51.527195, "Longitude": -0.010527376 }, "geometry": { "type": "Point", "coordinates": [ -0.010527376, 51.527195 ] } },
{ "type": "Feature", "properties": { "ClientName": "Surrey County Council", "ProjectTitle": "Boxgrove Primary School, Guildford", "Sector": "Education", "Postcode": "GU1 2TD", "Latitude": 51.246142, "Longitude": -0.54465297 }, "geometry": { "type": "Point", "coordinates": [ -0.54465297, 51.246142 ] } },
{ "type": "Feature", "properties": { "ClientName": "L&Q", "ProjectTitle": "Barking Riverside 208A", "Sector": "Residential", "Postcode": " IG11 0YP", "Latitude": 51.518573, "Longitude": 0.118802 }, "geometry": { "type": "Point", "coordinates": [ 0.118802, 51.518573 ] } },
{ "type": "Feature", "properties": { "ClientName": "L&Q", "ProjectTitle": "Barking Riverside 209B", "Sector": "Residential", "Postcode": " IG11 0YP", "Latitude": 51.518573, "Longitude": 0.118802 }, "geometry": { "type": "Point", "coordinates": [ 0.118802, 51.518573 ] } },
{ "type": "Feature", "properties": { "ClientName": "D12 Developments", "ProjectTitle": "Bramshot Avenue", "Sector": "Residential", "Postcode": "SE7 7HY", "Latitude": 51.481294, "Longitude": 0.022212495 }, "geometry": { "type": "Point", "coordinates": [ 0.022212495, 51.481294 ] } },
{ "type": "Feature", "properties": { "ClientName": "Cambria Automobiles Plc", "ProjectTitle": "Brentwood Showroom Development", "Sector": "Office", "Postcode": "CM14 5NA", "Latitude": 51.609349, "Longitude": 0.26587661 }, "geometry": { "type": "Point", "coordinates": [ 0.26587661, 51.609349 ] } },
{ "type": "Feature", "properties": { "ClientName": "Peabody", "ProjectTitle": "Bridgewater Road", "Sector": "Residential", "Postcode": "HA0 1AN", "Latitude": 51.540171, "Longitude": -0.30235197 }, "geometry": { "type": "Point", "coordinates": [ -0.30235197, 51.540171 ] } },
{ "type": "Feature", "properties": { "ClientName": "NE Lincs Council", "ProjectTitle": "Brigsley Road, Waltham, Grimsby", "Sector": "Residential", "Postcode": "DN37 0LB", "Latitude": 53.50924, "Longitude": -0.10639134 }, "geometry": { "type": "Point", "coordinates": [ -0.10639134, 53.50924 ] } },
{ "type": "Feature", "properties": { "ClientName": "JLL", "ProjectTitle": "Broomwood Hall School", "Sector": "Education", "Postcode": "SW12 8NR", "Latitude": 51.450168, "Longitude": -0.15944096 }, "geometry": { "type": "Point", "coordinates": [ -0.15944096, 51.450168 ] } },
{ "type": "Feature", "properties": { "ClientName": "Panther Securities", "ProjectTitle": "Bruce Grove", "Sector": "Residential", "Postcode": "SS11 8QL", "Latitude": 51.60846, "Longitude": 0.54402589 }, "geometry": { "type": "Point", "coordinates": [ 0.54402589, 51.60846 ] } },
{ "type": "Feature", "properties": { "ClientName": "Roadpals Ltd", "ProjectTitle": "Brunel University  ", "Sector": "Education", "Postcode": "UB8 3PH", "Latitude": 51.532847, "Longitude": -0.47285546 }, "geometry": { "type": "Point", "coordinates": [ -0.47285546, 51.532847 ] } },
{ "type": "Feature", "properties": { "ClientName": "Surrey County Council", "ProjectTitle": "Burhill School, Hersham", "Sector": "Education", "Postcode": "KT12 4HQ", "Latitude": 51.363977, "Longitude": -0.39645683 }, "geometry": { "type": "Point", "coordinates": [ -0.39645683, 51.363977 ] } },
{ "type": "Feature", "properties": { "ClientName": "City and Suburban Homes", "ProjectTitle": "Campfield Road", "Sector": "Residential", "Postcode": "A1 5HT", "Latitude": 51.749544, "Longitude": -0.315232 }, "geometry": { "type": "Point", "coordinates": [ -0.315232, 51.749544 ] } },
{ "type": "Feature", "properties": { "ClientName": "Langley College", "ProjectTitle": "Car Parking Study", "Sector": "Education", "Postcode": "SL3 8BY", "Latitude": 51.505648, "Longitude": -0.54517604 }, "geometry": { "type": "Point", "coordinates": [ -0.54517604, 51.505648 ] } },
{ "type": "Feature", "properties": { "ClientName": "Safestore", "ProjectTitle": "Carshalton", "Sector": "Industrial", "Postcode": "SM5 2RE ", "Latitude": 51.371767, "Longitude": -0.17130784 }, "geometry": { "type": "Point", "coordinates": [ -0.17130784, 51.371767 ] } },
{ "type": "Feature", "properties": { "ClientName": "Reef Estates", "ProjectTitle": "Cavendish Square", "Sector": "Mixed Use", "Postcode": "W1G 0RN", "Latitude": 51.516014, "Longitude": -0.14592054 }, "geometry": { "type": "Point", "coordinates": [ -0.14592054, 51.516014 ] } },
{ "type": "Feature", "properties": { "ClientName": "Hamson Barron Smith", "ProjectTitle": "Chart Wood School", "Sector": "Education", "Postcode": "RH5 4DA", "Latitude": 51.221543, "Longitude": -0.31819558 }, "geometry": { "type": "Point", "coordinates": [ -0.31819558, 51.221543 ] } },
{ "type": "Feature", "properties": { "ClientName": "Southwark Square Ltd", "ProjectTitle": "Chocolate Factory", "Sector": "Office", "Postcode": "SE1 1TD", "Latitude": 51.504046, "Longitude": -0.094360455 }, "geometry": { "type": "Point", "coordinates": [ -0.094360455, 51.504046 ] } },
{ "type": "Feature", "properties": { "ClientName": "Kingsborough Church", "ProjectTitle": "Church Road", "Sector": "Education", "Postcode": "SE11", "Latitude": 51.485536, "Longitude": -0.10969408 }, "geometry": { "type": "Point", "coordinates": [ -0.10969408, 51.485536 ] } },
{ "type": "Feature", "properties": { "ClientName": "St James", "ProjectTitle": "Clarendon Gas Works", "Sector": "Residential", "Postcode": "N8 0EA", "Latitude": 51.588509, "Longitude": -0.11083625 }, "geometry": { "type": "Point", "coordinates": [ -0.11083625, 51.588509 ] } },
{ "type": "Feature", "properties": { "ClientName": "XLB Property", "ProjectTitle": "Collingam House Wimbledon", "Sector": "Office", "Postcode": "SW19 1QT", "Latitude": 51.418233, "Longitude": -0.20214435 }, "geometry": { "type": "Point", "coordinates": [ -0.20214435, 51.418233 ] } },
{ "type": "Feature", "properties": { "ClientName": "Collingwood House Investment Ltd", "ProjectTitle": "Collingwood House", "Sector": "Residential", "Postcode": "W1W 6XH", "Latitude": 51.520587, "Longitude": -0.14107901 }, "geometry": { "type": "Point", "coordinates": [ -0.14107901, 51.520587 ] } },
{ "type": "Feature", "properties": { "ClientName": "Thames Clippers", "ProjectTitle": "Commuting patronage study", "Sector": "Transport", "Postcode": "DA11 0BJ", "Latitude": 51.444987, "Longitude": 0.36940734 }, "geometry": { "type": "Point", "coordinates": [ 0.36940734, 51.444987 ] } },
{ "type": "Feature", "properties": { "ClientName": "Park Plaza Hotels & Resorts", "ProjectTitle": "County Hall Reps", "Sector": "Hotel", "Postcode": "SE1 7RY", "Latitude": 51.501365, "Longitude": -0.11601277 }, "geometry": { "type": "Point", "coordinates": [ -0.11601277, 51.501365 ] } },
{ "type": "Feature", "properties": { "ClientName": "Surrey County Council", "ProjectTitle": "Cranleigh CofE Primary School", "Sector": "Education", "Postcode": "GU6 7AN", "Latitude": 51.143549, "Longitude": -0.48673773 }, "geometry": { "type": "Point", "coordinates": [ -0.48673773, 51.143549 ] } },
{ "type": "Feature", "properties": { "ClientName": "Leos UK", "ProjectTitle": "Cresta House, Luton", "Sector": "Residential", "Postcode": "LU1 2PL", "Latitude": 51.880467, "Longitude": -0.419248 }, "geometry": { "type": "Point", "coordinates": [ -0.419248, 51.880467 ] } },
{ "type": "Feature", "properties": { "ClientName": "Leos UK", "ProjectTitle": "Cresta House, Luton", "Sector": "Residential", "Postcode": "LU1 2PL", "Latitude": 51.880467, "Longitude": -0.419248 }, "geometry": { "type": "Point", "coordinates": [ -0.419248, 51.880467 ] } },
{ "type": "Feature", "properties": { "ClientName": "Kier Construction (Southern)", "ProjectTitle": "Croxley Danes", "Sector": "Education", "Postcode": "WD3 3LT", "Latitude": 51.652636, "Longitude": -0.43502123 }, "geometry": { "type": "Point", "coordinates": [ -0.43502123, 51.652636 ] } },
{ "type": "Feature", "properties": { "ClientName": "Adam Khan Architects", "ProjectTitle": "Custom House Sites", "Sector": "Residential", "Postcode": "E16", "Latitude": 51.507713, "Longitude": 0.022805703 }, "geometry": { "type": "Point", "coordinates": [ 0.022805703, 51.507713 ] } },
{ "type": "Feature", "properties": { "ClientName": "Cushman and Wakefield", "ProjectTitle": "David Lloyd, Beaconsfield", "Sector": "Leisure", "Postcode": "HP10 0BY", "Latitude": 51.595876, "Longitude": -0.68401294 }, "geometry": { "type": "Point", "coordinates": [ -0.68401294, 51.595876 ] } },
{ "type": "Feature", "properties": { "ClientName": "Cushman and Wakefield", "ProjectTitle": "David Lloyd, Cambridge", "Sector": "Leisure", "Postcode": "CB1 3LH", "Latitude": 52.195686, "Longitude": 0.16741385 }, "geometry": { "type": "Point", "coordinates": [ 0.16741385, 52.195686 ] } },
{ "type": "Feature", "properties": { "ClientName": "Cushman and Wakefield", "ProjectTitle": "David Lloyd, Coventry", "Sector": "Leisure", "Postcode": "CV3 4LF", "Latitude": 52.384597, "Longitude": -1.4906441 }, "geometry": { "type": "Point", "coordinates": [ -1.4906441, 52.384597 ] } },
{ "type": "Feature", "properties": { "ClientName": "Cushman and Wakefield", "ProjectTitle": "David Lloyd, Kidbrooke", "Sector": "Leisure", "Postcode": "SE12 8HG", "Latitude": 51.458975, "Longitude": 0.020016624 }, "geometry": { "type": "Point", "coordinates": [ 0.020016624, 51.458975 ] } },
{ "type": "Feature", "properties": { "ClientName": "Cushman and Wakefield", "ProjectTitle": "David Lloyd, Lichfield", "Sector": "Leisure", "Postcode": "GU9 7BB", "Latitude": 51.213908, "Longitude": -0.80644869 }, "geometry": { "type": "Point", "coordinates": [ -0.80644869, 51.213908 ] } },
{ "type": "Feature", "properties": { "ClientName": "Meadow Residential", "ProjectTitle": "Dulwich FC", "Sector": "Residential", "Postcode": "SE22 8BD", "Latitude": 51.461895, "Longitude": -0.083693157 }, "geometry": { "type": "Point", "coordinates": [ -0.083693157, 51.461895 ] } },
{ "type": "Feature", "properties": { "ClientName": "Aecom", "ProjectTitle": "Ealing Fields School", "Sector": "Education", "Postcode": "W7 2BB", "Latitude": 51.497471, "Longitude": -0.32894904 }, "geometry": { "type": "Point", "coordinates": [ -0.32894904, 51.497471 ] } },
{ "type": "Feature", "properties": { "ClientName": "Surrey County Council", "ProjectTitle": "Earlswood Infant & Nursery School", "Sector": "Education", "Postcode": "RH1 6DZ", "Latitude": 51.230968, "Longitude": -0.16618107 }, "geometry": { "type": "Point", "coordinates": [ -0.16618107, 51.230968 ] } },
{ "type": "Feature", "properties": { "ClientName": "Montagu Evans", "ProjectTitle": "East London Science School", "Sector": "Education", "Postcode": "E3 3DU", "Latitude": 51.526846, "Longitude": -0.006419426 }, "geometry": { "type": "Point", "coordinates": [ -0.006419426, 51.526846 ] } },
{ "type": "Feature", "properties": { "ClientName": "Infrared Capital Partners", "ProjectTitle": "Eastgate, Basildon", "Sector": "Residential", "Postcode": "SS14 1EB", "Latitude": 51.569496, "Longitude": 0.46037063 }, "geometry": { "type": "Point", "coordinates": [ 0.46037063, 51.569496 ] } },
{ "type": "Feature", "properties": { "ClientName": "Eden Christian Centre", "ProjectTitle": "Eden Christian Centre", "Sector": "Education", "Postcode": "IG1 1RN", "Latitude": 51.559328, "Longitude": 0.085097178 }, "geometry": { "type": "Point", "coordinates": [ 0.085097178, 51.559328 ] } },
{ "type": "Feature", "properties": { "ClientName": "Safestore", "ProjectTitle": "Edgware", "Sector": "Industrial", "Postcode": "HA8 7DD", "Latitude": 51.610042, "Longitude": -0.2790074 }, "geometry": { "type": "Point", "coordinates": [ -0.2790074, 51.610042 ] } },
{ "type": "Feature", "properties": { "ClientName": "University of Creative Arts", "ProjectTitle": "Epsom Campus", "Sector": "Education", "Postcode": "KT18 5BE", "Latitude": 51.329839, "Longitude": -0.26504475 }, "geometry": { "type": "Point", "coordinates": [ -0.26504475, 51.329839 ] } },
{ "type": "Feature", "properties": { "ClientName": "Redrow", "ProjectTitle": "Esso Site - Merrick Road", "Sector": "Residential", "Postcode": "UB2 4AU", "Latitude": 51.504987, "Longitude": -0.37756403 }, "geometry": { "type": "Point", "coordinates": [ -0.37756403, 51.504987 ] } },
{ "type": "Feature", "properties": { "ClientName": "Surrey County Council", "ProjectTitle": "Ewell Grove Primary School", "Sector": "Education", "Postcode": "KT17 1UZ", "Latitude": 51.349092, "Longitude": -0.24988566 }, "geometry": { "type": "Point", "coordinates": [ -0.24988566, 51.349092 ] } },
{ "type": "Feature", "properties": { "ClientName": "Plowman Craven", "ProjectTitle": "Exeter Creative School", "Sector": "Education", "Postcode": "EX2 8YP", "Latitude": 50.688393, "Longitude": -3.521855 }, "geometry": { "type": "Point", "coordinates": [ -3.521855, 50.688393 ] } },
{ "type": "Feature", "properties": { "ClientName": "Safestore", "ProjectTitle": "Farm Road, Sheffield", "Sector": "Industrial", "Postcode": "S2 4BG", "Latitude": 53.372629, "Longitude": -1.4625269 }, "geometry": { "type": "Point", "coordinates": [ -1.4625269, 53.372629 ] } },
{ "type": "Feature", "properties": { "ClientName": "University of Creative Arts", "ProjectTitle": "Farnham Campus", "Sector": "Education", "Postcode": "GU9 7DS", "Latitude": 51.215769, "Longitude": -0.80551287 }, "geometry": { "type": "Point", "coordinates": [ -0.80551287, 51.215769 ] } },
{ "type": "Feature", "properties": { "ClientName": "Merseyside Pension Fund", "ProjectTitle": "Farnham Retail Park", "Sector": "Retail", "Postcode": "GU9 9QJ ", "Latitude": 51.218514, "Longitude": -0.78387772 }, "geometry": { "type": "Point", "coordinates": [ -0.78387772, 51.218514 ] } },
{ "type": "Feature", "properties": { "ClientName": "CBRE", "ProjectTitle": "Farnham Retail Park", "Sector": "Retail", "Postcode": "GU9 7BB", "Latitude": 51.213908, "Longitude": -0.80644869 }, "geometry": { "type": "Point", "coordinates": [ -0.80644869, 51.213908 ] } },
{ "type": "Feature", "properties": { "ClientName": "Ferndown & Uddens BID", "ProjectTitle": "Ferndown & Uddens Industrial Estate", "Sector": "Business Park", "Postcode": "BH21 7NL", "Latitude": 50.806335, "Longitude": -1.9249021 }, "geometry": { "type": "Point", "coordinates": [ -1.9249021, 50.806335 ] } },
{ "type": "Feature", "properties": { "ClientName": "Surrey County Council", "ProjectTitle": "FHES", "Sector": "Education", "Postcode": "GU9 9BN", "Latitude": 51.231989, "Longitude": -0.78349393 }, "geometry": { "type": "Point", "coordinates": [ -0.78349393, 51.231989 ] } },
{ "type": "Feature", "properties": { "ClientName": "Kier Construction (Eastern)", "ProjectTitle": "Fitzwimarc School", "Sector": "Education", "Postcode": "SS6 8EB", "Latitude": 51.588625, "Longitude": 0.61055692 }, "geometry": { "type": "Point", "coordinates": [ 0.61055692, 51.588625 ] } },
{ "type": "Feature", "properties": { "ClientName": "HKR Architects", "ProjectTitle": "Former Tunnel Garage", "Sector": "Residential", "Postcode": "RM15 4XS", "Latitude": 51.495762, "Longitude": 0.23241771 }, "geometry": { "type": "Point", "coordinates": [ 0.23241771, 51.495762 ] } },
{ "type": "Feature", "properties": { "ClientName": "JLL", "ProjectTitle": "Formula E, Excel", "Sector": "Transport", "Postcode": "E16 1XL", "Latitude": 51.50816, "Longitude": 0.027119909 }, "geometry": { "type": "Point", "coordinates": [ 0.027119909, 51.50816 ] } },
{ "type": "Feature", "properties": { "ClientName": "Kier Construction (Southern)", "ProjectTitle": "Fox Grove School", "Sector": "Education", "Postcode": "KT22 7PW", "Latitude": 51.309694, "Longitude": -0.33615222 }, "geometry": { "type": "Point", "coordinates": [ -0.33615222, 51.309694 ] } },
{ "type": "Feature", "properties": { "ClientName": "Safestore", "ProjectTitle": "Gateshead", "Sector": "Industrial", "Postcode": "NE11 0JH", "Latitude": 54.937706, "Longitude": -1.6211454 }, "geometry": { "type": "Point", "coordinates": [ -1.6211454, 54.937706 ] } },
{ "type": "Feature", "properties": { "ClientName": "Ktesius", "ProjectTitle": "Gloucester Place, Brighton", "Sector": "Mixed Use", "Postcode": "BN1 4AA", "Latitude": 50.826381, "Longitude": -0.13587516 }, "geometry": { "type": "Point", "coordinates": [ -0.13587516, 50.826381 ] } },
{ "type": "Feature", "properties": { "ClientName": "Adam Khan Architects", "ProjectTitle": "Granville & Carlton", "Sector": "Residential", "Postcode": "NW6 5RA", "Latitude": 51.532789, "Longitude": -0.19809599 }, "geometry": { "type": "Point", "coordinates": [ -0.19809599, 51.532789 ] } },
{ "type": "Feature", "properties": { "ClientName": "Green Park (Reading) Ltd", "ProjectTitle": "Green Park, Reading", "Sector": "Business Park", "Postcode": "RG2 6GP", "Latitude": 51.426272, "Longitude": -0.9876236 }, "geometry": { "type": "Point", "coordinates": [ -0.9876236, 51.426272 ] } },
{ "type": "Feature", "properties": { "ClientName": "Aecom", "ProjectTitle": "Greenwich Steiner School", "Sector": "Education", "Postcode": "SE3 7SE", "Latitude": 51.480165, "Longitude": 0.01722274 }, "geometry": { "type": "Point", "coordinates": [ 0.01722274, 51.480165 ] } },
{ "type": "Feature", "properties": { "ClientName": "Westheath Projects Limited", "ProjectTitle": "Grimsby", "Sector": "Leisure", "Postcode": "DN31 1RP", "Latitude": 53.567117, "Longitude": -0.086696581 }, "geometry": { "type": "Point", "coordinates": [ -0.086696581, 53.567117 ] } },
{ "type": "Feature", "properties": { "ClientName": "Surrey County Council", "ProjectTitle": "Grovelands Primary School", "Sector": "Education", "Postcode": "KT12 2EB", "Latitude": 51.393829, "Longitude": -0.40676884 }, "geometry": { "type": "Point", "coordinates": [ -0.40676884, 51.393829 ] } },
{ "type": "Feature", "properties": { "ClientName": "PPR Estates", "ProjectTitle": "Hale Lane", "Sector": "Residential", "Postcode": "HA8 9QN", "Latitude": 51.61749, "Longitude": -0.26266304 }, "geometry": { "type": "Point", "coordinates": [ -0.26266304, 51.61749 ] } },
{ "type": "Feature", "properties": { "ClientName": "Montagu Evans", "ProjectTitle": "Hanworth Road, Hounslow", "Sector": "Residential", "Postcode": "TW4 5LG", "Latitude": 51.457061, "Longitude": -0.37195171 }, "geometry": { "type": "Point", "coordinates": [ -0.37195171, 51.457061 ] } },
{ "type": "Feature", "properties": { "ClientName": "Plowman Craven", "ProjectTitle": "Hanworth Road, Hounslow", "Sector": "Mixed Use", "Postcode": "TW4 5LG", "Latitude": 51.457061, "Longitude": -0.37195171 }, "geometry": { "type": "Point", "coordinates": [ -0.37195171, 51.457061 ] } },
{ "type": "Feature", "properties": { "ClientName": "JLL", "ProjectTitle": "Harlestone Road Primary Academy", "Sector": "Education", "Postcode": "NN7 4EN", "Latitude": 52.274361, "Longitude": -0.97275591 }, "geometry": { "type": "Point", "coordinates": [ -0.97275591, 52.274361 ] } },
{ "type": "Feature", "properties": { "ClientName": "Mace", "ProjectTitle": "Harlestone Road Primary School", "Sector": "Education", "Postcode": "NN7 4EN", "Latitude": 52.274361, "Longitude": -0.97275591 }, "geometry": { "type": "Point", "coordinates": [ -0.97275591, 52.274361 ] } },
{ "type": "Feature", "properties": { "ClientName": "Collison", "ProjectTitle": "Harris Academy Leisure Facility", "Sector": "Leisure", "Postcode": "SW18 5JU", "Latitude": 51.445016, "Longitude": -0.19768211 }, "geometry": { "type": "Point", "coordinates": [ -0.19768211, 51.445016 ] } },
{ "type": "Feature", "properties": { "ClientName": "Plowman Craven", "ProjectTitle": "Harris Central Sixth Form", "Sector": "Education", "Postcode": "SW4 8DX", "Latitude": 51.456625, "Longitude": -0.12879512 }, "geometry": { "type": "Point", "coordinates": [ -0.12879512, 51.456625 ] } },
{ "type": "Feature", "properties": { "ClientName": "Harrow Masonic Centre", "ProjectTitle": "Harrow Masonic Centre", "Sector": "Leisure", "Postcode": "HA3 0EL", "Latitude": 51.581974, "Longitude": -0.31033508 }, "geometry": { "type": "Point", "coordinates": [ -0.31033508, 51.581974 ] } },
{ "type": "Feature", "properties": { "ClientName": "KCA", "ProjectTitle": "Hereford and Exeter Houses", "Sector": "Residential", "Postcode": "NW6 5QJ", "Latitude": 51.532564, "Longitude": -0.19575473 }, "geometry": { "type": "Point", "coordinates": [ -0.19575473, 51.532564 ] } },
{ "type": "Feature", "properties": { "ClientName": "London Borough of Bexley", "ProjectTitle": "High Street, Sidcup", "Sector": "Leisure", "Postcode": "DA14 6EH", "Latitude": 51.4257, "Longitude": 0.1039516 }, "geometry": { "type": "Point", "coordinates": [ 0.1039516, 51.4257 ] } },
{ "type": "Feature", "properties": { "ClientName": "McLaren Developmnets", "ProjectTitle": "High Wycombe - Octagon Site", "Sector": "Office", "Postcode": "HP11 2HU", "Latitude": 51.630164, "Longitude": -0.75341259 }, "geometry": { "type": "Point", "coordinates": [ -0.75341259, 51.630164 ] } },
{ "type": "Feature", "properties": { "ClientName": "The Learning Experiece Corporation", "ProjectTitle": "Horizon East, Leatherhead", "Sector": "Education", "Postcode": "KT22 7TW", "Latitude": 51.29977, "Longitude": -0.33709917 }, "geometry": { "type": "Point", "coordinates": [ -0.33709917, 51.29977 ] } },
{ "type": "Feature", "properties": { "ClientName": "Dover District Council", "ProjectTitle": "Kimberley Close", "Sector": "Residential", "Postcode": "CT16", "Latitude": 51.130714, "Longitude": 1.315602 }, "geometry": { "type": "Point", "coordinates": [ 1.315602, 51.130714 ] } },
{ "type": "Feature", "properties": { "ClientName": "Maylim", "ProjectTitle": "Kings Cross - Google Building", "Sector": "Office", "Postcode": "N1C 4TB", "Latitude": 51.532379, "Longitude": -0.12545966 }, "geometry": { "type": "Point", "coordinates": [ -0.12545966, 51.532379 ] } },
{ "type": "Feature", "properties": { "ClientName": "Kier Construction (Eastern)", "ProjectTitle": "Langham Oaks", "Sector": "Education", "Postcode": "CO4 5PA", "Latitude": 51.947809, "Longitude": 0.93987252 }, "geometry": { "type": "Point", "coordinates": [ 0.93987252, 51.947809 ] } },
{ "type": "Feature", "properties": { "ClientName": "Safestore", "ProjectTitle": "Lewisham", "Sector": "Industrial", "Postcode": "SE15 1JL ", "Latitude": 51.48114, "Longitude": -0.060246525 }, "geometry": { "type": "Point", "coordinates": [ -0.060246525, 51.48114 ] } },
{ "type": "Feature", "properties": { "ClientName": "Kier Construction (Southern)", "ProjectTitle": "Lidl, Richmond", "Sector": "Retail", "Postcode": "TW2 7LT", "Latitude": 51.452421, "Longitude": -0.35835759 }, "geometry": { "type": "Point", "coordinates": [ -0.35835759, 51.452421 ] } },
{ "type": "Feature", "properties": { "ClientName": "Surrey County Council", "ProjectTitle": "Lime Tree School", "Sector": "Education", "Postcode": "RH1 3LN", "Latitude": 51.254955, "Longitude": -0.15551038 }, "geometry": { "type": "Point", "coordinates": [ -0.15551038, 51.254955 ] } },
{ "type": "Feature", "properties": { "ClientName": "Montagu Evans", "ProjectTitle": "Lodge Lane, Finchley", "Sector": "Residential", "Postcode": "N12 8JJ", "Latitude": 51.616504, "Longitude": -0.17980315 }, "geometry": { "type": "Point", "coordinates": [ -0.17980315, 51.616504 ] } },
{ "type": "Feature", "properties": { "ClientName": "London Borough of Lambeth", "ProjectTitle": "Lollard Street", "Sector": "Residential", "Postcode": "SE11", "Latitude": 51.485536, "Longitude": -0.10969408 }, "geometry": { "type": "Point", "coordinates": [ -0.10969408, 51.485536 ] } },
{ "type": "Feature", "properties": { "ClientName": "PMG", "ProjectTitle": "London Resort", "Sector": "Leisure", "Postcode": "DA10 0PP", "Latitude": 51.460884, "Longitude": 0.309767 }, "geometry": { "type": "Point", "coordinates": [ 0.309767, 51.460884 ] } },
{ "type": "Feature", "properties": { "ClientName": "Openwide Investments", "ProjectTitle": "Luton Hotel", "Sector": "Hotel", "Postcode": "LU2 9NH", "Latitude": 51.87356, "Longitude": -0.38731392 }, "geometry": { "type": "Point", "coordinates": [ -0.38731392, 51.87356 ] } },
{ "type": "Feature", "properties": { "ClientName": "Plowman Craven", "ProjectTitle": "Merritts Brook", "Sector": "Education", "Postcode": "B31 5QD", "Latitude": 52.411872, "Longitude": -1.9917084 }, "geometry": { "type": "Point", "coordinates": [ -1.9917084, 52.411872 ] } },
{ "type": "Feature", "properties": { "ClientName": "TG BR Limited", "ProjectTitle": "Moorfield Road, Enfield", "Sector": "Residential", "Postcode": "EN3 5XP", "Latitude": 51.661, "Longitude": -0.046704426 }, "geometry": { "type": "Point", "coordinates": [ -0.046704426, 51.661 ] } },
{ "type": "Feature", "properties": { "ClientName": "Castle Homes", "ProjectTitle": "Mothercare HQ", "Sector": "Residential", "Postcode": "WD24 6SH", "Latitude": 51.680504, "Longitude": -0.40245546 }, "geometry": { "type": "Point", "coordinates": [ -0.40245546, 51.680504 ] } },
{ "type": "Feature", "properties": { "ClientName": "Mace", "ProjectTitle": "Nanaksar Primary School", "Sector": "Education", "Postcode": "UB4 0LT", "Latitude": 51.508644, "Longitude": -0.39824243 }, "geometry": { "type": "Point", "coordinates": [ -0.39824243, 51.508644 ] } },
{ "type": "Feature", "properties": { "ClientName": "Kier Construction (Southern)", "ProjectTitle": "Nanaksar Primary School", "Sector": "Education", "Postcode": "UB4 0LT", "Latitude": 51.508644, "Longitude": -0.39824243 }, "geometry": { "type": "Point", "coordinates": [ -0.39824243, 51.508644 ] } },
{ "type": "Feature", "properties": { "ClientName": "GCPM", "ProjectTitle": "Neat Place", "Sector": "Hotel", "Postcode": "SW1V 1LG", "Latitude": 51.495775, "Longitude": -0.1426793 }, "geometry": { "type": "Point", "coordinates": [ -0.1426793, 51.495775 ] } },
{ "type": "Feature", "properties": { "ClientName": "New Hall School", "ProjectTitle": "New Hall School", "Sector": "Education", "Postcode": "CM3 3HS", "Latitude": 51.764214, "Longitude": 0.51142596 }, "geometry": { "type": "Point", "coordinates": [ 0.51142596, 51.764214 ] } },
{ "type": "Feature", "properties": { "ClientName": "Willow Corp Sarl", "ProjectTitle": "Nobu Hotel, Shoreditch", "Sector": "Hotel", "Postcode": "EC2A 4BH", "Latitude": 51.525057, "Longitude": -0.083060667 }, "geometry": { "type": "Point", "coordinates": [ -0.083060667, 51.525057 ] } },
{ "type": "Feature", "properties": { "ClientName": "New Hall School", "ProjectTitle": "North Access", "Sector": "Education", "Postcode": "CM3 3HS", "Latitude": 51.764214, "Longitude": 0.51142596 }, "geometry": { "type": "Point", "coordinates": [ 0.51142596, 51.764214 ] } },
{ "type": "Feature", "properties": { "ClientName": "BAM", "ProjectTitle": "North Brent School", "Sector": "Education", "Postcode": "NW10 2XH", "Latitude": 51.551144, "Longitude": -0.2492679 }, "geometry": { "type": "Point", "coordinates": [ -0.2492679, 51.551144 ] } },
{ "type": "Feature", "properties": { "ClientName": "Plowman Craven", "ProjectTitle": "North Star Sea Mills, Bristol", "Sector": "Education", "Postcode": "BS9 2HL", "Latitude": 51.484587, "Longitude": -2.6499282 }, "geometry": { "type": "Point", "coordinates": [ -2.6499282, 51.484587 ] } },
{ "type": "Feature", "properties": { "ClientName": "Safestore", "ProjectTitle": "Old Jamaica Road, Southwark", "Sector": "Industrial", "Postcode": "SE16 4AW", "Latitude": 51.497395, "Longitude": -0.070952521 }, "geometry": { "type": "Point", "coordinates": [ -0.070952521, 51.497395 ] } },
{ "type": "Feature", "properties": { "ClientName": "Safestore", "ProjectTitle": "Old Jamaica Road, Southwark", "Sector": "Industrial", "Postcode": "SE16 4BL", "Latitude": 51.496908, "Longitude": -0.069229834 }, "geometry": { "type": "Point", "coordinates": [ -0.069229834, 51.496908 ] } },
{ "type": "Feature", "properties": { "ClientName": "Kier Construction (Southern)", "ProjectTitle": "Orchard Hill SEN School", "Sector": "Education", "Postcode": "UB7 8AH", "Latitude": 51.516695, "Longitude": -0.47336687 }, "geometry": { "type": "Point", "coordinates": [ -0.47336687, 51.516695 ] } },
{ "type": "Feature", "properties": { "ClientName": "Octavion", "ProjectTitle": "Paddington Green Police Station", "Sector": "Residential", "Postcode": "W2 1XJ", "Latitude": 51.520469, "Longitude": -0.1713538 }, "geometry": { "type": "Point", "coordinates": [ -0.1713538, 51.520469 ] } },
{ "type": "Feature", "properties": { "ClientName": "Meadow Residential", "ProjectTitle": "Pentavia, Mill Hill", "Sector": "Residential", "Postcode": "NW7 2SH", "Latitude": 51.605874, "Longitude": -0.23926411 }, "geometry": { "type": "Point", "coordinates": [ -0.23926411, 51.605874 ] } },
{ "type": "Feature", "properties": { "ClientName": "Safestore", "ProjectTitle": "Peterborough", "Sector": "Industrial", "Postcode": "PE1 5YA", "Latitude": 52.576759, "Longitude": -0.22119379 }, "geometry": { "type": "Point", "coordinates": [ -0.22119379, 52.576759 ] } },
{ "type": "Feature", "properties": { "ClientName": "Future Academies", "ProjectTitle": "Phoenix Academy", "Sector": "Education", "Postcode": "W12 0RQ", "Latitude": 51.513088, "Longitude": -0.23784312 }, "geometry": { "type": "Point", "coordinates": [ -0.23784312, 51.513088 ] } },
{ "type": "Feature", "properties": { "ClientName": "Plowman Craven", "ProjectTitle": "Phoenix Academy North", "Sector": "Education", "Postcode": "WS10 OTT", "Latitude": 52.555168, "Longitude": -1.990749 }, "geometry": { "type": "Point", "coordinates": [ -1.990749, 52.555168 ] } },
{ "type": "Feature", "properties": { "ClientName": "Pellings", "ProjectTitle": "Pilgrims Way", "Sector": "Education", "Postcode": "CT1 1XU", "Latitude": 51.27216, "Longitude": 1.0995306 }, "geometry": { "type": "Point", "coordinates": [ 1.0995306, 51.27216 ] } },
{ "type": "Feature", "properties": { "ClientName": "Pellings", "ProjectTitle": "Pilgrims' Way Primary School", "Sector": "Education", "Postcode": "CT1 1XU", "Latitude": 51.27216, "Longitude": 1.0995306 }, "geometry": { "type": "Point", "coordinates": [ 1.0995306, 51.27216 ] } },
{ "type": "Feature", "properties": { "ClientName": "Surrey County Council", "ProjectTitle": "Portesbery", "Sector": "Education", "Postcode": "GU16 6TA", "Latitude": 51.311316, "Longitude": -0.693637 }, "geometry": { "type": "Point", "coordinates": [ -0.693637, 51.311316 ] } },
{ "type": "Feature", "properties": { "ClientName": "Surrey County Council", "ProjectTitle": "Potters Gate Primary School", "Sector": "Education", "Postcode": "GU9 7BB", "Latitude": 51.213908, "Longitude": -0.80644869 }, "geometry": { "type": "Point", "coordinates": [ -0.80644869, 51.213908 ] } },
{ "type": "Feature", "properties": { "ClientName": "6tt", "ProjectTitle": "Purfleet Thames Clippers Study", "Sector": "Transport", "Postcode": "RM19 1RP", "Latitude": 51.475095, "Longitude": 0.250835 }, "geometry": { "type": "Point", "coordinates": [ 0.250835, 51.475095 ] } },
{ "type": "Feature", "properties": { "ClientName": "Kier Construction (Eastern)", "ProjectTitle": "Putteridge High School", "Sector": "Education", "Postcode": "LU2 8HJ", "Latitude": 51.90404, "Longitude": -0.38389673 }, "geometry": { "type": "Point", "coordinates": [ -0.38389673, 51.90404 ] } },
{ "type": "Feature", "properties": { "ClientName": "Ktesius", "ProjectTitle": "Ravensbourne", "Sector": "Residential", "Postcode": "BR2 6HE", "Latitude": 51.363821, "Longitude": 0.03879686 }, "geometry": { "type": "Point", "coordinates": [ 0.03879686, 51.363821 ] } },
{ "type": "Feature", "properties": { "ClientName": "Plowman Craven", "ProjectTitle": "Ray Mills West Road", "Sector": "Education", "Postcode": "SL6 8SL", "Latitude": 51.529404, "Longitude": -0.71692516 }, "geometry": { "type": "Point", "coordinates": [ -0.71692516, 51.529404 ] } },
{ "type": "Feature", "properties": { "ClientName": "Reading (Jersey) Unit Trust", "ProjectTitle": "Reading International Business Park", "Sector": "Business Park", "Postcode": "RG2 6DH", "Latitude": 51.415173, "Longitude": -0.97589022 }, "geometry": { "type": "Point", "coordinates": [ -0.97589022, 51.415173 ] } },
{ "type": "Feature", "properties": { "ClientName": "Mammoth Capital", "ProjectTitle": "Regal Cinema, Hale End Road", "Sector": "Residential", "Postcode": "E4 9PT", "Latitude": 51.606828, "Longitude": 0.000880709 }, "geometry": { "type": "Point", "coordinates": [ 0.000880709, 51.606828 ] } },
{ "type": "Feature", "properties": { "ClientName": "LB Camden", "ProjectTitle": "Regis Road", "Sector": "Industrial", "Postcode": "NW5 3EW", "Latitude": 51.550546, "Longitude": -0.14486305 }, "geometry": { "type": "Point", "coordinates": [ -0.14486305, 51.550546 ] } },
{ "type": "Feature", "properties": { "ClientName": "Pellings", "ProjectTitle": "Reigate Priory Junior School", "Sector": "Education", "Postcode": "RH2 8BY", "Latitude": 51.215694, "Longitude": -0.20239887 }, "geometry": { "type": "Point", "coordinates": [ -0.20239887, 51.215694 ] } },
{ "type": "Feature", "properties": { "ClientName": "Pellings", "ProjectTitle": "Reigate Priory Junior School (new site)", "Sector": "Education", "Postcode": "RH2 7RL", "Latitude": 51.235698, "Longitude": -0.20616035 }, "geometry": { "type": "Point", "coordinates": [ -0.20616035, 51.235698 ] } },
{ "type": "Feature", "properties": { "ClientName": "Park Plaza Hotels & Resorts", "ProjectTitle": "Riverbank DSP", "Sector": "Hotel", "Postcode": "SE1 7TJ", "Latitude": 51.490485, "Longitude": -0.1222089 }, "geometry": { "type": "Point", "coordinates": [ -0.1222089, 51.490485 ] } },
{ "type": "Feature", "properties": { "ClientName": "Kier Construction (London)", "ProjectTitle": "Royal Brompton Hospital", "Sector": "Health", "Postcode": " SW3 6NP", "Latitude": 51.489743, "Longitude": -0.17085494 }, "geometry": { "type": "Point", "coordinates": [ -0.17085494, 51.489743 ] } },
{ "type": "Feature", "properties": { "ClientName": "Safestore", "ProjectTitle": "Russell St, Sheffield", "Sector": "Industrial", "Postcode": "S3 8RW", "Latitude": 53.388133, "Longitude": -1.4721501 }, "geometry": { "type": "Point", "coordinates": [ -1.4721501, 53.388133 ] } },
{ "type": "Feature", "properties": { "ClientName": "Safestore", "ProjectTitle": "Safestore Morden", "Sector": "Industrial", "Postcode": "SM4 4LG", "Latitude": 51.38321, "Longitude": -0.22421136 }, "geometry": { "type": "Point", "coordinates": [ -0.22421136, 51.38321 ] } },
{ "type": "Feature", "properties": { "ClientName": "JLL", "ProjectTitle": "Saxon Place", "Sector": "Industrial", "Postcode": "ME2 2JU", "Latitude": 51.385267, "Longitude": 0.48380509 }, "geometry": { "type": "Point", "coordinates": [ 0.48380509, 51.385267 ] } },
{ "type": "Feature", "properties": { "ClientName": "KCA", "ProjectTitle": "Selby Centre", "Sector": "Residential", "Postcode": " N17 8JL", "Latitude": 51.607453, "Longitude": -0.079028647 }, "geometry": { "type": "Point", "coordinates": [ -0.079028647, 51.607453 ] } },
{ "type": "Feature", "properties": { "ClientName": "Green Park (Reading) Ltd", "ProjectTitle": "Speed Surveys", "Sector": "Mixed Use", "Postcode": "RG2 6GP", "Latitude": 51.426272, "Longitude": -0.9876236 }, "geometry": { "type": "Point", "coordinates": [ -0.9876236, 51.426272 ] } },
{ "type": "Feature", "properties": { "ClientName": "Pellings", "ProjectTitle": "St Anne's Campus", "Sector": "Residential", "Postcode": "BN7 1UE", "Latitude": 50.872056, "Longitude": 0.001101341 }, "geometry": { "type": "Point", "coordinates": [ 0.001101341, 50.872056 ] } },
{ "type": "Feature", "properties": { "ClientName": "KCA", "ProjectTitle": "St Raphael's", "Sector": "Residential", "Postcode": "NW10 0TZ", "Latitude": 51.550878, "Longitude": -0.2652596 }, "geometry": { "type": "Point", "coordinates": [ -0.2652596, 51.550878 ] } },
{ "type": "Feature", "properties": { "ClientName": "Kier Construction (Eastern)", "ProjectTitle": "Stantonbury High School", "Sector": "Education", "Postcode": "MK14 6BN", "Latitude": 52.061045, "Longitude": -0.77246561 }, "geometry": { "type": "Point", "coordinates": [ -0.77246561, 52.061045 ] } },
{ "type": "Feature", "properties": { "ClientName": "Dover District Council", "ProjectTitle": "Stockdale Gardens", "Sector": "Residential", "Postcode": "CT17", "Latitude": 51.128301, "Longitude": 1.3067947 }, "geometry": { "type": "Point", "coordinates": [ 1.3067947, 51.128301 ] } },
{ "type": "Feature", "properties": { "ClientName": "Roadpals Ltd", "ProjectTitle": "Stockley Park", "Sector": "Business Park", "Postcode": "UB11 1FW", "Latitude": 51.508843, "Longitude": -0.43705643 }, "geometry": { "type": "Point", "coordinates": [ -0.43705643, 51.508843 ] } },
{ "type": "Feature", "properties": { "ClientName": "DP9", "ProjectTitle": "Swakeleys House, Ickenham", "Sector": "Residential", "Postcode": "UB10 8NQ", "Latitude": 51.561613, "Longitude": -0.4475108 }, "geometry": { "type": "Point", "coordinates": [ -0.4475108, 51.561613 ] } },
{ "type": "Feature", "properties": { "ClientName": "Pace Investments", "ProjectTitle": "Swan Pier", "Sector": "Transport", "Postcode": "EC4R 3TN", "Latitude": 51.509593, "Longitude": -0.088177279 }, "geometry": { "type": "Point", "coordinates": [ -0.088177279, 51.509593 ] } },
{ "type": "Feature", "properties": { "ClientName": "Surrey County Council", "ProjectTitle": "Sythwood Primary School", "Sector": "Education", "Postcode": "GU21 3AX", "Latitude": 51.322801, "Longitude": -0.58486663 }, "geometry": { "type": "Point", "coordinates": [ -0.58486663, 51.322801 ] } },
{ "type": "Feature", "properties": { "ClientName": "Barking Riverside", "ProjectTitle": "Thames Clippers Study", "Sector": "Transport", "Postcode": "IG11 0DS", "Latitude": 51.515599, "Longitude": 0.10261489 }, "geometry": { "type": "Point", "coordinates": [ 0.10261489, 51.515599 ] } },
{ "type": "Feature", "properties": { "ClientName": "Plowman Craven", "ProjectTitle": "The Avenue, Brent", "Sector": "Residential", "Postcode": "NW6 7BH", "Latitude": 51.542883, "Longitude": -0.21074854 }, "geometry": { "type": "Point", "coordinates": [ -0.21074854, 51.542883 ] } },
{ "type": "Feature", "properties": { "ClientName": "Plowman Craven", "ProjectTitle": "The Avenue, Marylebone", "Sector": "Education", "Postcode": "NW6 7BH", "Latitude": 51.542883, "Longitude": -0.21074854 }, "geometry": { "type": "Point", "coordinates": [ -0.21074854, 51.542883 ] } },
{ "type": "Feature", "properties": { "ClientName": "Castle Homes", "ProjectTitle": "The Former Cheswycks School", "Sector": "Residential", "Postcode": "GU16 6PB", "Latitude": 51.255906, "Longitude": -0.681911 }, "geometry": { "type": "Point", "coordinates": [ -0.681911, 51.255906 ] } },
{ "type": "Feature", "properties": { "ClientName": "Surrey County Council", "ProjectTitle": "The Greville Primary School", "Sector": "Education", "Postcode": "KT21 1SH", "Latitude": 51.314565, "Longitude": -0.29595565 }, "geometry": { "type": "Point", "coordinates": [ -0.29595565, 51.314565 ] } },
{ "type": "Feature", "properties": { "ClientName": "Kier Construction (Southern)", "ProjectTitle": "The Reach, Feltham", "Sector": "Education", "Postcode": "TW13 4AB", "Latitude": 51.443535, "Longitude": -0.41112651 }, "geometry": { "type": "Point", "coordinates": [ -0.41112651, 51.443535 ] } },
{ "type": "Feature", "properties": { "ClientName": "Daniel Watney", "ProjectTitle": "The Ridgeway, Harrow", "Sector": null, "Postcode": "HA3 0LL", "Latitude": 51.578875, "Longitude": -0.30930986 }, "geometry": { "type": "Point", "coordinates": [ -0.30930986, 51.578875 ] } },
{ "type": "Feature", "properties": { "ClientName": "Metro Storage", "ProjectTitle": "Thomas Moore Street", "Sector": "Industrial", "Postcode": "E1W 1UB", "Latitude": 51.506983, "Longitude": -0.068285215 }, "geometry": { "type": "Point", "coordinates": [ -0.068285215, 51.506983 ] } },
{ "type": "Feature", "properties": { "ClientName": "Meadow Residential", "ProjectTitle": "Tolworth Tower", "Sector": "Residential", "Postcode": "KT6 7ET", "Latitude": 51.380871, "Longitude": -0.28021632 }, "geometry": { "type": "Point", "coordinates": [ -0.28021632, 51.380871 ] } },
{ "type": "Feature", "properties": { "ClientName": "Alpha Real Estate", "ProjectTitle": "Townsend House", "Sector": "Office", "Postcode": "SW1P 1BL", "Latitude": 51.496247, "Longitude": -0.13561523 }, "geometry": { "type": "Point", "coordinates": [ -0.13561523, 51.496247 ] } },
{ "type": "Feature", "properties": { "ClientName": "Green Park (Reading) Ltd", "ProjectTitle": "Traffic Surveys", "Sector": "Mixed Use", "Postcode": "RG2 6GP", "Latitude": 51.426272, "Longitude": -0.9876236 }, "geometry": { "type": "Point", "coordinates": [ -0.9876236, 51.426272 ] } },
{ "type": "Feature", "properties": { "ClientName": "Surrey County Council", "ProjectTitle": "Trinity Oaks", "Sector": "Education", "Postcode": "RH6 9NS", "Latitude": 51.182934, "Longitude": -0.15054557 }, "geometry": { "type": "Point", "coordinates": [ -0.15054557, 51.182934 ] } },
{ "type": "Feature", "properties": { "ClientName": "Knight Frank", "ProjectTitle": "Trinity Village", "Sector": "Residential", "Postcode": "SE1 1DB", "Latitude": 51.499536, "Longitude": -0.095153728 }, "geometry": { "type": "Point", "coordinates": [ -0.095153728, 51.499536 ] } },
{ "type": "Feature", "properties": { "ClientName": "Kier Construction (Southern)", "ProjectTitle": "Turing School", "Sector": "Education", "Postcode": "TW11 0LR", "Latitude": 51.424984, "Longitude": -0.340383 }, "geometry": { "type": "Point", "coordinates": [ -0.340383, 51.424984 ] } },
{ "type": "Feature", "properties": { "ClientName": "LB Camden", "ProjectTitle": "Tybalds Estate Regeneration", "Sector": "Residential", "Postcode": "WC1N 3HZ", "Latitude": 51.521746, "Longitude": -0.12018807 }, "geometry": { "type": "Point", "coordinates": [ -0.12018807, 51.521746 ] } },
{ "type": "Feature", "properties": { "ClientName": "University of Creative Arts", "ProjectTitle": "UCA Residences", "Sector": "Education", "Postcode": "GU9 7DS", "Latitude": 51.215769, "Longitude": -0.80551287 }, "geometry": { "type": "Point", "coordinates": [ -0.80551287, 51.215769 ] } },
{ "type": "Feature", "properties": { "ClientName": "Green Park (Reading) Ltd", "ProjectTitle": "Utilities", "Sector": "Mixed Use", "Postcode": "RG2 6GP", "Latitude": 51.426272, "Longitude": -0.9876236 }, "geometry": { "type": "Point", "coordinates": [ -0.9876236, 51.426272 ] } },
{ "type": "Feature", "properties": { "ClientName": "JLL", "ProjectTitle": "Waldo Industrial Estate", "Sector": "Industrial", "Postcode": "BR1 2QX", "Latitude": 51.39936, "Longitude": 0.033145503 }, "geometry": { "type": "Point", "coordinates": [ 0.033145503, 51.39936 ] } },
{ "type": "Feature", "properties": { "ClientName": "Park Plaza Hotels & Resorts", "ProjectTitle": "WBR Windows", "Sector": "Hotel", "Postcode": "SE1 7UT", "Latitude": 51.500961, "Longitude": -0.11659136 }, "geometry": { "type": "Point", "coordinates": [ -0.11659136, 51.500961 ] } },
{ "type": "Feature", "properties": { "ClientName": "City Sanctury", "ProjectTitle": "Well House, George Road", "Sector": "Residential", "Postcode": "KT2 7NR", "Latitude": 51.419287, "Longitude": -0.27713527 }, "geometry": { "type": "Point", "coordinates": [ -0.27713527, 51.419287 ] } },
{ "type": "Feature", "properties": { "ClientName": "KCA", "ProjectTitle": "Wembley Housing Zone", "Sector": "Residential", "Postcode": "HA9 6AR", "Latitude": 51.553929, "Longitude": -0.28995393 }, "geometry": { "type": "Point", "coordinates": [ -0.28995393, 51.553929 ] } },
{ "type": "Feature", "properties": { "ClientName": "Park Plaza Hotels & Resorts", "ProjectTitle": "Westminster Bridge Road", "Sector": "Hotel", "Postcode": "SE1 7PB", "Latitude": 51.50282, "Longitude": -0.11925238 }, "geometry": { "type": "Point", "coordinates": [ -0.11925238, 51.50282 ] } },
{ "type": "Feature", "properties": { "ClientName": "Meadow Residential", "ProjectTitle": "Willesden", "Sector": "Residential", "Postcode": "NW2 5AN", "Latitude": 51.548415, "Longitude": -0.22684395 }, "geometry": { "type": "Point", "coordinates": [ -0.22684395, 51.548415 ] } },
{ "type": "Feature", "properties": { "ClientName": "Safestore", "ProjectTitle": "William Court, Hall Road, St John's Wood", "Sector": "Industrial", "Postcode": "NW8 9PA", "Latitude": 51.530355, "Longitude": -0.17906027 }, "geometry": { "type": "Point", "coordinates": [ -0.17906027, 51.530355 ] } },
{ "type": "Feature", "properties": { "ClientName": "Anthology", "ProjectTitle": "Willoughby Lane", "Sector": "Residential", "Postcode": "N17 0RU", "Latitude": 51.608737, "Longitude": -0.05491336 }, "geometry": { "type": "Point", "coordinates": [ -0.05491336, 51.608737 ] } },
{ "type": "Feature", "properties": { "ClientName": "Surrey County Council", "ProjectTitle": "Witley CofE Infant School", "Sector": "Education", "Postcode": "GU8 5PN", "Latitude": 51.148158, "Longitude": -0.64796056 }, "geometry": { "type": "Point", "coordinates": [ -0.64796056, 51.148158 ] } },
{ "type": "Feature", "properties": { "ClientName": "Aecom", "ProjectTitle": "Wooten Hall Park", "Sector": "Education", "Postcode": "NN4 0JA", "Latitude": 52.211057, "Longitude": -0.89600347 }, "geometry": { "type": "Point", "coordinates": [ -0.89600347, 52.211057 ] } },
{ "type": "Feature", "properties": { "ClientName": "Hamson Barron Smith", "ProjectTitle": "Worplesdon Primary School", "Sector": "Education", "Postcode": "GU3 3NL", "Latitude": 51.258781, "Longitude": -0.62002498 }, "geometry": { "type": "Point", "coordinates": [ -0.62002498, 51.258781 ] } },
{ "type": "Feature", "properties": { "ClientName": "CPMG Architects", "ProjectTitle": "Wyvern Road, Purley", "Sector": "Residential", "Postcode": "CR8 2NP", "Latitude": 51.344973, "Longitude": -0.11259746 }, "geometry": { "type": "Point", "coordinates": [ -0.11259746, 51.344973 ] } }
]
}
